start=new Date('2022-12-18T00:00:00.000Z').valueOf();
sats=[{"MEAN_ELEMENT_THEORY":"SGP4","NORAD_CAT_ID":"53919","MEAN_MOTION_DDOT":"0.0000000000000","APOAPSIS":"495.814","BSTAR":"-0.05197500000000","LAUNCH_DATE":"2022-09-24","SEMIMAJOR_AXIS":"6872.950","FILE":"3707070","EPHEMERIS_TYPE":"0","RCS_SIZE":"LARGE","MEAN_MOTION_DOT":"-0.01163621","TLE_LINE1":"1 53919U 22119AK  22351.91667824 -.01163621  00000-0 -51975-1 0  9998","OBJECT_NAME":"STARLINK-5023","SITE":"AFETR","CENTER_NAME":"EARTH","DECAY_DATE":null,"REV_AT_EPOCH":"130","CLASSIFICATION_TYPE":"U","INCLINATION":"53.2168","OBJECT_ID":"2022-119AK","OBJECT_TYPE":"PAYLOAD","REF_FRAME":"TEME","PERIOD":"94.509","EPOCH":"2022-12-17T22:00:00.999936","TIME_SYSTEM":"UTC","RA_OF_ASC_NODE":"201.5230","PERIAPSIS":"493.815","ECCENTRICITY":"0.00014540","GP_ID":"220759090","COUNTRY_CODE":"US","ELEMENT_SET_NO":"999","MEAN_ANOMALY":"59.4919","ARG_OF_PERICENTER":"117.1253","TLE_LINE2":"2 53919  53.2168 201.5230 0001454 117.1253  59.4919 15.23659835  1309","MEAN_MOTION":"15.23659835"},{"ECCENTRICITY":"0.00013940","RA_OF_ASC_NODE":"201.4696","PERIAPSIS":"492.141","TIME_SYSTEM":"UTC","ARG_OF_PERICENTER":"92.3069","TLE_LINE2":"2 53920  53.2169 201.4696 0001394  92.3069 111.3768 15.24230534  1301","MEAN_MOTION":"15.24230534","MEAN_ANOMALY":"111.3768","ELEMENT_SET_NO":"999","GP_ID":"220759304","COUNTRY_CODE":"US","RCS_SIZE":"LARGE","TLE_LINE1":"1 53920U 22119AL  22351.91667824 -.01146362  00000-0 -50274-1 0  9994","MEAN_MOTION_DOT":"-0.01146362","OBJECT_NAME":"STARLINK-5025","FILE":"3707070","EPHEMERIS_TYPE":"0","APOAPSIS":"494.057","LAUNCH_DATE":"2022-09-24","BSTAR":"-0.05027400000000","SEMIMAJOR_AXIS":"6871.234","MEAN_ELEMENT_THEORY":"SGP4","NORAD_CAT_ID":"53920","MEAN_MOTION_DDOT":"0.0000000000000","OBJECT_TYPE":"PAYLOAD","REF_FRAME":"TEME","PERIOD":"94.474","EPOCH":"2022-12-17T22:00:00.999936","INCLINATION":"53.2169","OBJECT_ID":"2022-119AL","SITE":"AFETR","DECAY_DATE":null,"REV_AT_EPOCH":"130","CLASSIFICATION_TYPE":"U","CENTER_NAME":"EARTH"},{"GP_ID":"220760370","COUNTRY_CODE":"US","ELEMENT_SET_NO":"999","MEAN_ANOMALY":"132.0658","MEAN_MOTION":"15.24527098","TLE_LINE2":"2 53922  53.2167 201.4433 0001389  84.7907 132.0658 15.24527098  1302","ARG_OF_PERICENTER":"84.7907","TIME_SYSTEM":"UTC","RA_OF_ASC_NODE":"201.4433","PERIAPSIS":"491.254","ECCENTRICITY":"0.00013890","SITE":"AFETR","DECAY_DATE":null,"CLASSIFICATION_TYPE":"U","REV_AT_EPOCH":"130","CENTER_NAME":"EARTH","INCLINATION":"53.2167","OBJECT_ID":"2022-119AN","PERIOD":"94.456","REF_FRAME":"TEME","OBJECT_TYPE":"PAYLOAD","EPOCH":"2022-12-17T22:00:00.999936","MEAN_ELEMENT_THEORY":"SGP4","MEAN_MOTION_DDOT":"0.0000000000000","NORAD_CAT_ID":"53922","APOAPSIS":"493.162","SEMIMAJOR_AXIS":"6870.343","BSTAR":"-0.04967100000000","LAUNCH_DATE":"2022-09-24","EPHEMERIS_TYPE":"0","FILE":"3707070","MEAN_MOTION_DOT":"-0.01143024","TLE_LINE1":"1 53922U 22119AN  22351.91667824 -.01143024  00000-0 -49671-1 0  9997","RCS_SIZE":"LARGE","OBJECT_NAME":"STARLINK-5002"},{"RA_OF_ASC_NODE":"201.4955","PERIAPSIS":"492.926","TIME_SYSTEM":"UTC","ECCENTRICITY":"0.00014490","ELEMENT_SET_NO":"999","GP_ID":"220760583","COUNTRY_CODE":"US","MEAN_MOTION":"15.23956644","TLE_LINE2":"2 53923  53.2166 201.4955 0001449  99.0741  91.3205 15.23956644  1300","ARG_OF_PERICENTER":"99.0741","MEAN_ANOMALY":"91.3205","APOAPSIS":"494.918","SEMIMAJOR_AXIS":"6872.057","LAUNCH_DATE":"2022-09-24","BSTAR":"-0.05242800000000","MEAN_ELEMENT_THEORY":"SGP4","MEAN_MOTION_DDOT":"0.0000000000000","NORAD_CAT_ID":"53923","MEAN_MOTION_DOT":"-0.01182638","TLE_LINE1":"1 53923U 22119AP  22351.91667824 -.01182638  00000-0 -52428-1 0  9996","RCS_SIZE":"LARGE","OBJECT_NAME":"STARLINK-5004","EPHEMERIS_TYPE":"0","FILE":"3707070","INCLINATION":"53.2166","OBJECT_ID":"2022-119AP","SITE":"AFETR","CENTER_NAME":"EARTH","DECAY_DATE":null,"REV_AT_EPOCH":"130","CLASSIFICATION_TYPE":"U","PERIOD":"94.491","REF_FRAME":"TEME","OBJECT_TYPE":"PAYLOAD","EPOCH":"2022-12-17T22:00:00.999936"},{"PERIOD":"92.988","REF_FRAME":"TEME","OBJECT_TYPE":"PAYLOAD","EPOCH":"2022-12-17T22:00:00.999936","INCLINATION":"53.2132","OBJECT_ID":"2022-119AQ","SITE":"AFETR","DECAY_DATE":null,"REV_AT_EPOCH":"130","CENTER_NAME":"EARTH","CLASSIFICATION_TYPE":"U","MEAN_MOTION_DOT":"-0.01098398","TLE_LINE1":"1 53924U 22119AQ  22351.91667824 -.01098398  00000-0 -22399-1 0  9990","RCS_SIZE":"LARGE","OBJECT_NAME":"STARLINK-5001","EPHEMERIS_TYPE":"0","FILE":"3707070","APOAPSIS":"421.699","SEMIMAJOR_AXIS":"6798.987","BSTAR":"-0.02239900000000","LAUNCH_DATE":"2022-09-24","MEAN_ELEMENT_THEORY":"SGP4","MEAN_MOTION_DDOT":"0.0000000000000","NORAD_CAT_ID":"53924","TLE_LINE2":"2 53924  53.2132 198.6521 0001246  72.1797 101.2152 15.48589979  1300","MEAN_MOTION":"15.48589979","ARG_OF_PERICENTER":"72.1797","MEAN_ANOMALY":"101.2152","ELEMENT_SET_NO":"999","GP_ID":"220759517","COUNTRY_CODE":"US","ECCENTRICITY":"0.00012460","RA_OF_ASC_NODE":"198.6521","PERIAPSIS":"420.005","TIME_SYSTEM":"UTC"},{"ECCENTRICITY":"0.00018080","TIME_SYSTEM":"UTC","PERIAPSIS":"483.691","RA_OF_ASC_NODE":"201.5347","MEAN_ANOMALY":"96.6533","ARG_OF_PERICENTER":"78.1706","MEAN_MOTION":"15.26952209","TLE_LINE2":"2 53925  53.2113 201.5347 0001808  78.1706  96.6533 15.26952209  1306","COUNTRY_CODE":"US","GP_ID":"220759730","ELEMENT_SET_NO":"999","FILE":"3707070","EPHEMERIS_TYPE":"0","OBJECT_NAME":"STARLINK-5011","RCS_SIZE":"LARGE","TLE_LINE1":"1 53925U 22119AR  22351.91667824 -.00856410  00000-0 -34680-1 0  9993","MEAN_MOTION_DOT":"-0.00856410","NORAD_CAT_ID":"53925","MEAN_MOTION_DDOT":"0.0000000000000","MEAN_ELEMENT_THEORY":"SGP4","LAUNCH_DATE":"2022-09-24","BSTAR":"-0.03468000000000","SEMIMAJOR_AXIS":"6863.067","APOAPSIS":"486.172","EPOCH":"2022-12-17T22:00:00.999936","REF_FRAME":"TEME","OBJECT_TYPE":"PAYLOAD","PERIOD":"94.306","REV_AT_EPOCH":"130","DECAY_DATE":null,"CLASSIFICATION_TYPE":"U","CENTER_NAME":"EARTH","SITE":"AFETR","OBJECT_ID":"2022-119AR","INCLINATION":"53.2113"},{"FILE":"3707070","EPHEMERIS_TYPE":"0","OBJECT_NAME":"STARLINK-5014","RCS_SIZE":"LARGE","MEAN_MOTION_DOT":"-0.00808032","TLE_LINE1":"1 53926U 22119AS  22351.91667824 -.00808032  00000-0 -15425-1 0  9997","NORAD_CAT_ID":"53926","MEAN_MOTION_DDOT":"0.0000000000000","MEAN_ELEMENT_THEORY":"SGP4","LAUNCH_DATE":"2022-09-24","BSTAR":"-0.01542500000000","SEMIMAJOR_AXIS":"6794.690","APOAPSIS":"417.399","EPOCH":"2022-12-17T22:00:00.999936","REF_FRAME":"TEME","OBJECT_TYPE":"PAYLOAD","PERIOD":"92.900","DECAY_DATE":null,"REV_AT_EPOCH":"130","CENTER_NAME":"EARTH","CLASSIFICATION_TYPE":"U","SITE":"AFETR","OBJECT_ID":"2022-119AS","INCLINATION":"53.2151","ECCENTRICITY":"0.00012420","TIME_SYSTEM":"UTC","PERIAPSIS":"415.711","RA_OF_ASC_NODE":"198.6453","MEAN_ANOMALY":"88.8725","ARG_OF_PERICENTER":"87.1913","MEAN_MOTION":"15.50059315","TLE_LINE2":"2 53926  53.2151 198.6453 0001242  87.1913  88.8725 15.50059315  1304","COUNTRY_CODE":"US","GP_ID":"220759944","ELEMENT_SET_NO":"999"},{"MEAN_ANOMALY":"191.8497","TLE_LINE2":"2 53927  53.2167 198.5086 0001409  59.9618 191.8497 15.47739484  1306","MEAN_MOTION":"15.47739484","ARG_OF_PERICENTER":"59.9618","COUNTRY_CODE":"US","GP_ID":"220760158","ELEMENT_SET_NO":"999","ECCENTRICITY":"0.00014090","TIME_SYSTEM":"UTC","PERIAPSIS":"422.384","RA_OF_ASC_NODE":"198.5086","EPOCH":"2022-12-17T22:00:00.999936","PERIOD":"93.039","OBJECT_TYPE":"PAYLOAD","REF_FRAME":"TEME","REV_AT_EPOCH":"130","DECAY_DATE":null,"CLASSIFICATION_TYPE":"U","CENTER_NAME":"EARTH","SITE":"AFETR","OBJECT_ID":"2022-119AT","INCLINATION":"53.2167","EPHEMERIS_TYPE":"0","FILE":"3707070","OBJECT_NAME":"STARLINK-5008","MEAN_MOTION_DOT":"-0.01169934","TLE_LINE1":"1 53927U 22119AT  22351.91667824 -.01169934  00000-0 -24341-1 0  9997","RCS_SIZE":"LARGE","MEAN_MOTION_DDOT":"0.0000000000000","NORAD_CAT_ID":"53927","MEAN_ELEMENT_THEORY":"SGP4","SEMIMAJOR_AXIS":"6801.478","BSTAR":"-0.02434100000000","LAUNCH_DATE":"2022-09-24","APOAPSIS":"424.301"},{"ECCENTRICITY":"0.00014900","PERIAPSIS":"362.692","RA_OF_ASC_NODE":"197.5238","TIME_SYSTEM":"UTC","ARG_OF_PERICENTER":"273.7413","MEAN_MOTION":"15.68324346","TLE_LINE2":"2 53928  53.2169 197.5238 0001490 273.7413  95.3226 15.68324346  1304","MEAN_ANOMALY":"95.3226","ELEMENT_SET_NO":"999","COUNTRY_CODE":"US","GP_ID":"220759091","OBJECT_NAME":"STARLINK-5009","RCS_SIZE":"LARGE","TLE_LINE1":"1 53928U 22119AU  22351.91667824 -.01104003  00000-0 -10799-1 0  9996","MEAN_MOTION_DOT":"-0.01104003","FILE":"3707070","EPHEMERIS_TYPE":"0","LAUNCH_DATE":"2022-09-24","BSTAR":"-0.01079900000000","SEMIMAJOR_AXIS":"6741.832","APOAPSIS":"364.701","NORAD_CAT_ID":"53928","MEAN_MOTION_DDOT":"0.0000000000000","MEAN_ELEMENT_THEORY":"SGP4","EPOCH":"2022-12-17T22:00:00.999936","OBJECT_TYPE":"PAYLOAD","REF_FRAME":"TEME","PERIOD":"91.818","OBJECT_ID":"2022-119AU","INCLINATION":"53.2169","DECAY_DATE":null,"REV_AT_EPOCH":"130","CLASSIFICATION_TYPE":"U","CENTER_NAME":"EARTH","SITE":"AFETR"},{"MEAN_MOTION_DDOT":"0.0000000000000","NORAD_CAT_ID":"53929","MEAN_ELEMENT_THEORY":"SGP4","SEMIMAJOR_AXIS":"6869.506","LAUNCH_DATE":"2022-09-24","BSTAR":"-0.04760500000000","APOAPSIS":"492.536","EPHEMERIS_TYPE":"0","FILE":"3707070","OBJECT_NAME":"STARLINK-5018","MEAN_MOTION_DOT":"-0.01093520","TLE_LINE1":"1 53929U 22119AV  22351.91667824 -.01093520  00000-0 -47605-1 0  9994","RCS_SIZE":"LARGE","CENTER_NAME":"EARTH","DECAY_DATE":null,"REV_AT_EPOCH":"130","CLASSIFICATION_TYPE":"U","SITE":"AFETR","OBJECT_ID":"2022-119AV","INCLINATION":"53.2118","EPOCH":"2022-12-17T22:00:00.999936","PERIOD":"94.438","REF_FRAME":"TEME","OBJECT_TYPE":"PAYLOAD","TIME_SYSTEM":"UTC","PERIAPSIS":"490.205","RA_OF_ASC_NODE":"201.4174","ECCENTRICITY":"0.00016970","COUNTRY_CODE":"US","GP_ID":"220759305","ELEMENT_SET_NO":"999","MEAN_ANOMALY":"151.9634","MEAN_MOTION":"15.24805840","TLE_LINE2":"2 53929  53.2118 201.4174 0001697  77.9327 151.9634 15.24805840  1307","ARG_OF_PERICENTER":"77.9327"}];
